FLOCK 4X-13             
1 51028U 22002AW  23192.60379294  .00011176  00000+0  40119-3 0  9992
2 51028  97.4353 260.9443 0010874 138.5310 221.6757 15.28795160 82574
FLOCK 4X-39             
1 51029U 22002AX  23192.98273330  .00011936  00000+0  42479-3 0  9993
2 51029  97.4355 261.3606 0010371 137.4309 222.7737 15.29065755 82639
FLOCK 4X-17             
1 51035U 22002BD  23193.18504439  .00011121  00000+0  39906-3 0  9997
2 51035  97.4394 261.6609 0007638 144.2331 215.9422 15.28835570 82654
FLOCK 4X-10             
1 51037U 22002BF  23193.16565157  .00011451  00000+0  41048-3 0  9997
2 51037  97.4406 261.7901 0009741 143.8026 216.3874 15.28846549 82642
FLOCK 4X-36             
1 51039U 22002BH  23193.17028412  .00011274  00000+0  40486-3 0  9996
2 51039  97.4397 261.7575 0008706 143.6911 216.4921 15.28801204 82655
FLOCK 4X-21             
1 51040U 22002BJ  23193.16539066  .00016402  00000+0  54443-3 0  9995
2 51040  97.4363 261.7317 0009134 133.6272 226.5728 15.31268205 82669
FLOCK 4X-31             
1 51041U 22002BK  23191.99701142  .00009731  00000+0  35023-3 0  9991
2 51041  97.4343 260.1695 0007039 141.0186 219.1562 15.28779131 82473
FLOCK 4X-34             
1 51042U 22002BL  23192.98832548  .00011840  00000+0  42530-3 0  9992
2 51042  97.4409 261.5525 0008096 147.5627 212.6112 15.28783484 82621
FLOCK 4X-6              
1 51043U 22002BM  23193.17206975  .00011523  00000+0  41147-3 0  9995
2 51043  97.4388 261.6398 0007991 143.1695 217.0095 15.28985740 82658
FLOCK 4X-28             
1 51045U 22002BP  23192.61029723  .00016420  00000+0  53536-3 0  9995
2 51045  97.4342 261.0901 0009475 122.1585 238.0577 15.31842166 82586
FLOCK 4X-19             
1 51046U 22002BQ  23192.61801664  .00020055  00000+0  53385-3 0  9999
2 51046  97.4359 262.2332 0006618 131.9380 228.2430 15.38217009 82648
FLOCK 4X-9              
1 51047U 22002BR  23193.43972319  .00012064  00000+0  43243-3 0  9990
2 51047  97.4398 261.9870 0008499 146.8894 213.2880 15.28845493 82690
FLOCK 4X-35             
1 51048U 22002BS  23193.17562656  .00023633  00000+0  84263-3 0  9992
2 51048  97.4327 261.2474 0008200 138.9957 221.1901 15.28870966 82659
FLOCK 4X-11             
1 51049U 22002BT  23193.16389103  .00014549  00000+0  48409-3 0  9994
2 51049  97.4336 261.4964 0008705 127.6665 232.5367 15.31221824 82667
FLOCK 4X-40             
1 51052U 22002BW  23193.18439375  .00012451  00000+0  44628-3 0  9996
2 51052  97.4344 261.3148 0007524 147.8816 212.2883 15.28844501 82659
FLOCK 4X-24             
1 51056U 22002CA  23193.44741552  .00011557  00000+0  41331-3 0  9996
2 51056  97.4347 261.6247 0007701 137.8102 222.3731 15.28936203 82692
FLOCK 4X-4              
1 51064U 22002CJ  23193.16168469  .00013279  00000+0  47283-3 0  9999
2 51064  97.4356 261.4191 0008422 138.8552 221.3324 15.29039661 82654
FLOCK 4X-7              
1 51065U 22002CK  23193.17292741  .00011529  00000+0  41394-3 0  9995
2 51065  97.4378 261.6093 0008370 145.6856 214.4926 15.28803324 82652
FLOCK 4X-14             
1 51066U 22002CL  23193.49594444  .00012620  00000+0  45101-3 0  9999
2 51066  97.4415 262.1778 0008568 145.5247 214.6550 15.28931561 82709
FLOCK 4Y-24             
1 55020U 23001M   23192.12470412  .00005814  00000+0  28310-3 0  9990
2 55020  97.4753 251.6283 0009061 290.0377  69.9882 15.18721584 28712
FLOCK 4Y-32             
1 55021U 23001N   23193.43711748  .00007195  00000+0  34843-3 0  9998
2 55021  97.4753 252.9309 0009089 279.5729  80.4478 15.18827893 28910
FLOCK 4Y-22             
1 55022U 23001P   23193.43675330  .00006981  00000+0  33877-3 0  9993
2 55022  97.4759 252.9447 0009373 273.6179  86.3983 15.18764604 28916
FLOCK 4Y-18             
1 55023U 23001Q   23193.43642061  .00007352  00000+0  35592-3 0  9998
2 55023  97.4787 253.0175 0008982 281.2249  78.7975 15.18831495 28915
FLOCK 4Y-14             
1 55024U 23001R   23193.43092948  .00006580  00000+0  31955-3 0  9993
2 55024  97.4778 253.0015 0009255 285.9783  74.0431 15.18757599 28915
FLOCK 4Y-30             
1 55025U 23001S   23193.16431583  .00006316  00000+0  30691-3 0  9999
2 55025  97.4789 252.7733 0009154 285.0748  74.9473 15.18756529 28873
FLOCK 4Y-19             
1 55026U 23001T   23193.16951651  .00007161  00000+0  34706-3 0  9993
2 55026  97.4751 252.6677 0009665 275.9895  84.0238 15.18794760 28877
FLOCK 4Y-25             
1 55027U 23001U   23193.42662321  .00006534  00000+0  31725-3 0  9997
2 55027  97.4744 252.9225 0009089 280.9177  79.1034 15.18770438 28911
FLOCK 4Y-5              
1 55028U 23001V   23193.08883710  .00006321  00000+0  30647-3 0  9993
2 55028  97.4760 252.6458 0009822 275.0418  84.9695 15.18827796 28864
FLOCK 4Y-10             
1 55029U 23001W   23193.16114632  .00006809  00000+0  33005-3 0  9995
2 55029  97.4785 252.7681 0009279 279.7893  80.2294 15.18814121 28878
FLOCK 4Y-29             
1 55030U 23001X   23193.16036871  .00006888  00000+0  33414-3 0  9996
2 55030  97.4746 252.6675 0009638 280.1778  79.8369 15.18777013 28871
FLOCK 4Y-17             
1 55031U 23001Y   23192.57758002  .00006151  00000+0  29935-3 0  9994
2 55031  97.4790 252.1844 0009474 285.1570  74.8616 15.18708946 28786
FLOCK 4Y-7              
1 55032U 23001Z   23193.14616712  .00005769  00000+0  27973-3 0  9994
2 55032  97.4756 252.7112 0010067 275.2801  84.7285 15.18859333 28879
FLOCK 4Y-28             
1 55033U 23001AA  23193.12314148  .00018520  00000+0  82004-3 0  9996
2 55033  97.4722 252.8325 0007919 279.1565  80.8774 15.21671840 28882
FLOCK 4Y-3              
1 55035U 23001AC  23192.41551017  .00005411  00000+0  26318-3 0  9998
2 55035  97.4750 251.9877 0012514 285.2381  74.7470 15.18760974 28763
FLOCK 4Y-1              
1 55039U 23001AG  23192.93962977  .00008823  00000+0  42156-3 0  9998
2 55039  97.4752 252.5060 0009895 276.1198  83.8909 15.19217384 28843
FLOCK 4Y-16             
1 55040U 23001AH  23193.14801597  .00006419  00000+0  31103-3 0  9993
2 55040  97.4797 252.8172 0009735 284.8272  75.1884 15.18843742 28874
FLOCK 4Y-33             
1 55042U 23001AK  23193.48207292  .00006775  00000+0  32823-3 0  9999
2 55042  97.4743 252.9911 0009985 276.5520  83.4577 15.18825855 28922
FLOCK 4Y-11             
1 55043U 23001AL  23193.11407503  .00006477  00000+0  32048-3 0  9995
2 55043  97.4790 252.6917 0009690 277.6499  82.3634 15.18111752 28867
FLOCK 4Y-4              
1 55055U 23001AY  23193.47109280  .00006954  00000+0  33595-3 0  9996
2 55055  97.4768 253.0723 0011681 278.9135  81.0777 15.18901720 28922
FLOCK 4Y-35             
1 55057U 23001BA  23193.40745676  .00006538  00000+0  31717-3 0  9998
2 55057  97.4780 253.0443 0010799 285.2818  74.7223 15.18788918 28911
FLOCK 4Y-20             
1 55063U 23001BG  23193.13807666  .00006081  00000+0  29547-3 0  9994
2 55063  97.4798 252.8324 0012530 286.7245  73.2614 15.18744780 28879
FLOCK 4Y-12             
1 55065U 23001BJ  23193.40640204  .00006628  00000+0  32140-3 0  9999
2 55065  97.4805 253.1088 0012066 284.7237  75.2660 15.18782510 28915
FLOCK 4Y-6              
1 55066U 23001BK  23193.13984265  .00006626  00000+0  32150-3 0  9997
2 55066  97.4791 252.8132 0012092 287.4944  72.4968 15.18763391 28871
FLOCK 4Y-15             
1 55068U 23001BM  23193.12895013  .00006633  00000+0  32156-3 0  9994
2 55068  97.4742 252.7040 0012953 280.7152  79.2623 15.18781719 28876
FLOCK 4Y-9              
1 55069U 23001BN  23193.13406078  .00006266  00000+0  30423-3 0  9992
2 55069  97.4782 252.7945 0012326 289.9241  70.0665 15.18757681 28875
FLOCK 4Y-26             
1 55070U 23001BP  23192.47131422  .00007426  00000+0  35900-3 0  9992
2 55070  97.4751 252.0575 0012742 281.1333  78.8468 15.18838097 28770
FLOCK 4Y-8              
1 55071U 23001BQ  23192.47285882  .00006654  00000+0  32080-3 0  9991
2 55071  97.4757 252.0816 0012935 286.1102  73.8708 15.18973449 28771
FLOCK 4Y-2              
1 55074U 23001BT  23192.59924619  .00006346  00000+0  30939-3 0  9994
2 55074  97.4783 252.2955 0012699 289.2114  70.7746 15.18607053 28798
FLOCK 4Y-31             
1 55075U 23001BU  23193.12182476  .00016988  00000+0  80835-3 0  9995
2 55075  97.4748 252.7275 0013303 277.5401  82.4322 15.19158969 28879
FLOCK 4Y-21             
1 55077U 23001BW  23192.59899616  .00006306  00000+0  30695-3 0  9990
2 55077  97.4791 252.3100 0012778 287.8434  72.1406 15.18665171 28794
FLOCK 4Y-36             
1 55078U 23001BX  23192.59787159  .00006819  00000+0  32998-3 0  9996
2 55078  97.4765 252.2407 0012799 287.5360  72.4476 15.18834794 28792
FLOCK 4Y-13             
1 55079U 23001BY  23192.47175193  .00005586  00000+0  27211-3 0  9995
2 55079  97.4783 252.1497 0013213 287.7951  72.1841 15.18685774 28774
FLOCK 4Y-23             
1 55080U 23001BZ  23192.58957766  .00006693  00000+0  32470-3 0  9996
2 55080  97.4752 252.2308 0013180 283.4795  76.4970 15.18750795 28794
FLOCK 4Y-34             
1 55082U 23001CB  23192.58543756  .00006666  00000+0  32311-3 0  9992
2 55082  97.4764 252.2580 0013052 282.3076  77.6697 15.18785727 28791
FLOCK 4Y-27             
1 55083U 23001CC  23192.90622052  .00007276  00000+0  34893-3 0  9991
2 55083  97.4765 252.5864 0013389 283.0573  76.9167 15.19119592 28846
